FENGYUN 1C DEB          
1 36730U 99025EBC 17344.76280613  .00001470  00000-0  46920-3 0  9992
2 36730  99.6408  79.5697 0037234 231.6331 280.5805 14.41112817431396
